[{"OBJECT_NAME":"STARLINK-2588","OBJECT_ID":"2021-038AX","EPOCH":"2026-03-09T22:36:04.296960","MEAN_MOTION":15.15106652,"ECCENTRICITY":0.00059986,"INCLINATION":53.0735,"RA_OF_ASC_NODE":337.743,"ARG_OF_PERICENTER":113.5514,"MEAN_ANOMALY":246.611,"EPHEMERIS_TYPE":0,"CLASSIFICATION_TYPE":"U","NORAD_CAT_ID":48398,"ELEMENT_SET_NO":999,"REV_AT_EPOCH":26860,"BSTAR":0.0020267128,"MEAN_MOTION_DOT":0.00038318,"MEAN_MOTION_DDOT":0},{"OBJECT_NAME":"YAOGAN-39 03B","OBJECT_ID":"2023-152C","EPOCH":"2026-03-09T19:01:55.564608","MEAN_MOTION":15.17016078,"ECCENTRICITY":0.00191509,"INCLINATION":34.9895,"RA_OF_ASC_NODE":196.0494,"ARG_OF_PERICENTER":57.0378,"MEAN_ANOMALY":303.2174,"EPHEMERIS_TYPE":0,"CLASSIFICATION_TYPE":"U","NORAD_CAT_ID":57988,"ELEMENT_SET_NO":999,"REV_AT_EPOCH":13508,"BSTAR":0.00044094259,"MEAN_MOTION_DOT":8.936e-5,"MEAN_MOTION_DDOT":0}]
